{
  "norad_id": 54124,
  "name": "ONEWEB-0506",
  "history": [
    {
      "epoch": "2026-03-28T21:15:21.628800Z",
      "apogee_km": 1187.233765008591,
      "perigee_km": 1184.297458014802,
      "latitude_deg": -9.544640620168748e-06,
      "longitude_deg": 175.82679050511248,
      "height_km": 1188.6766973479153,
      "semi_major_axis_km": 7563.902611511696,
      "eccentricity": 0.0001941,
      "inclination_deg": 87.9209,
      "raan_deg": 320.9666,
      "arg_perigee_deg": 90.4956,
      "mean_anomaly_deg": 269.6399,
      "mean_motion_rev_day": 13.19726293
    },
    {
      "epoch": "2026-03-29T04:32:03.909696Z",
      "apogee_km": 1187.23145762095,
      "perigee_km": 1184.2996889835385,
      "latitude_deg": 2.4783294293902866e-05,
      "longitude_deg": 66.29130766341119,
      "height_km": 1188.674045901532,
      "semi_major_axis_km": 7563.9025733022445,
      "eccentricity": 0.0001938,
      "inclination_deg": 87.9207,
      "raan_deg": 320.9062,
      "arg_perigee_deg": 90.3943,
      "mean_anomaly_deg": 269.7412,
      "mean_motion_rev_day": 13.19726303
    },
    {
      "epoch": "2026-03-30T04:11:21.245280Z",
      "apogee_km": 1187.2322901413754,
      "perigee_km": 1184.2974962068238,
      "latitude_deg": 1.4823635113862505e-06,
      "longitude_deg": 70.30170708508855,
      "height_km": 1188.6680015651602,
      "semi_major_axis_km": 7563.901893174099,
      "eccentricity": 0.000194,
      "inclination_deg": 87.9206,
      "raan_deg": 320.7103,
      "arg_perigee_deg": 90.1845,
      "mean_anomaly_deg": 269.951,
      "mean_motion_rev_day": 13.19726481
    },
    {
      "epoch": "2026-03-30T09:38:52.915776Z",
      "apogee_km": 1187.2297012354175,
      "perigee_km": 1184.298235776063,
      "latitude_deg": 2.6787094920311706e-05,
      "longitude_deg": -11.849736979392276,
      "height_km": 1188.664476652936,
      "semi_major_axis_km": 7563.90096850574,
      "eccentricity": 0.00019378,
      "inclination_deg": 87.9205,
      "raan_deg": 320.665,
      "arg_perigee_deg": 90.0831,
      "mean_anomaly_deg": 270.0524,
      "mean_motion_rev_day": 13.19726723
    },
    {
      "epoch": "2026-03-30T22:23:06.918144Z",
      "apogee_km": 1187.2368316614593,
      "perigee_km": 1184.2935660378444,
      "latitude_deg": 3.778637588540266e-05,
      "longitude_deg": 156.46322167522868,
      "height_km": 1188.6579198723725,
      "semi_major_axis_km": 7563.9021988496515,
      "eccentricity": 0.00019456,
      "inclination_deg": 87.9204,
      "raan_deg": 320.5594,
      "arg_perigee_deg": 89.7803,
      "mean_anomaly_deg": 270.3553,
      "mean_motion_rev_day": 13.19726401
    },
    {
      "epoch": "2026-03-31T09:18:10.348992Z",
      "apogee_km": 1187.246782869509,
      "perigee_km": 1184.2859685321246,
      "latitude_deg": 5.003013333426495e-06,
      "longitude_deg": -7.839944795316963,
      "height_km": 1188.6563146882227,
      "semi_major_axis_km": 7563.9033757008165,
      "eccentricity": 0.00019572,
      "inclination_deg": 87.9203,
      "raan_deg": 320.4689,
      "arg_perigee_deg": 89.6746,
      "mean_anomaly_deg": 270.4611,
      "mean_motion_rev_day": 13.19726093
    }
  ]
}